ONEWEB-0027             
1 45432U 20020J   23309.93981811  .00000057  00000+0  11432-3 0  9994
2 45432  87.9246 195.5286 0001563  85.6949 274.4361 13.17647152180696
ONEWEB-0064             
1 45433U 20020K   23310.09415198  .00000584  00000+0  16123-2 0  9990
2 45433  87.9003 210.6286 0001406  80.1670 279.9616 13.11419722177642
ONEWEB-0018             
1 45434U 20020L   23309.82142363 -.00000170  00000+0 -51498-3 0  9999
2 45434  87.9007 210.6738 0001729  68.1512 291.9800 13.11415040177545
ONEWEB-0083             
1 45435U 20020M   23309.96268170  .00000358  00000+0  97499-3 0  9997
2 45435  87.8999 210.6290 0001665  75.3976 284.7337 13.11416769177602
ONEWEB-0095             
1 45436U 20020N   23309.95469056  .00000585  00000+0  16145-2 0  9993
2 45436  87.9008 210.6672 0001925  83.1231 277.0116 13.11416112177601
ONEWEB-0092             
1 45437U 20020P   23309.76949071 -.00000388  00000+0 -11303-2 0  9997
2 45437  87.9008 210.6832 0001961  82.1603 277.9747 13.11419342177698
ONEWEB-0085             
1 45438U 20020Q   23309.95617023  .00000476  00000+0  13081-2 0  9999
2 45438  87.9002 210.6528 0001525  68.2209 291.9081 13.11415968177606
ONEWEB-0096             
1 45439U 20020R   23309.96428025  .00000271  00000+0  72835-3 0  9999
2 45439  87.8999 210.6250 0001723  63.4196 296.7108 13.11418422177594
